[{"OBJECT_NAME":"IRIDIUM 136","OBJECT_ID":"2017-061H","EPOCH":"2026-03-09T23:21:02.652768","MEAN_MOTION":14.34217428,"ECCENTRICITY":0.00020185,"INCLINATION":86.3917,"RA_OF_ASC_NODE":66.7307,"ARG_OF_PERICENTER":86.502,"MEAN_ANOMALY":273.6407,"EPHEMERIS_TYPE":0,"CLASSIFICATION_TYPE":"U","NORAD_CAT_ID":42962,"ELEMENT_SET_NO":999,"REV_AT_EPOCH":44061,"BSTAR":-6.150317e-6,"MEAN_MOTION_DOT":3.0e-8,"MEAN_MOTION_DDOT":0},{"OBJECT_NAME":"FENGYUN 1C DEB","OBJECT_ID":"1999-025BKX","EPOCH":"2026-03-09T11:23:39.835968","MEAN_MOTION":14.17830901,"ECCENTRICITY":0.00976674,"INCLINATION":98.6416,"RA_OF_ASC_NODE":79.0097,"ARG_OF_PERICENTER":271.0825,"MEAN_ANOMALY":87.9162,"EPHEMERIS_TYPE":0,"CLASSIFICATION_TYPE":"U","NORAD_CAT_ID":31217,"ELEMENT_SET_NO":999,"REV_AT_EPOCH":97577,"BSTAR":0.00076625611,"MEAN_MOTION_DOT":1.596e-5,"MEAN_MOTION_DDOT":0}]
